NORAD_CAT_ID,OBJECT_NAME,OBJECT_TYPE,EPOCH,MEAN_MOTION,ECCENTRICITY,INCLINATION,RA_OF_ASC_NODE,ARG_OF_PERICENTER,MEAN_ANOMALY,BSTAR,MEAN_MOTION_DOT,MEAN_MOTION_DDOT,TLE_LINE0,TLE_LINE1,TLE_LINE2,SEMIMAJOR_AXIS,PERIOD,APOGEE,PERIGEE,DECAYED
55411.0,STARLINK-5605,PAYLOAD,2023-04-20 08:56:11,15.69918486,0.0003073,69.9979,228.4639,266.3153,93.7691,1.3745e-05,1.44e-05,0.0,0 STARLINK-5605,1 55411U 23014W   23110.37236025  .00001440  00000-0  13745-4 0  9994,2 55411  69.9979 228.4639 0003073 266.3153  93.7691 15.69918486 13499,6737.267,91.725,361.203,357.062,0.0
55411.0,STARLINK-5605,PAYLOAD,2023-04-20 10:27:57,15.69917448,0.0003148,69.9991,228.2849,265.9436,94.14,1.1126e-05,1.125e-05,0.0,0 STARLINK-5605,1 55411U 23014W   23110.43607840  .00001125  00000-0  11126-4 0  9999,2 55411  69.9991 228.2849 0003148 265.9436  94.1400 15.69917448 13508,6737.27,91.725,361.256,357.014,0.0
55411.0,STARLINK-5605,PAYLOAD,2023-04-20 18:06:43,15.69915811,0.0003551,69.9998,227.3892,265.1181,94.961,-2.7858e-06,-5.48e-06,0.0,0 STARLINK-5605,1 55411U 23014W   23110.75466648 -.00000548  00000-0 -27858-5 0  9993,2 55411  69.9998 227.3892 0003551 265.1181  94.9610 15.69915811 12614,6737.275,91.725,361.532,356.747,0.0
55411.0,STARLINK-5605,PAYLOAD,2023-04-21 06:20:43,15.69931271,0.0003625,69.9987,225.9545,259.4638,100.615,7.3696e-06,6.74e-06,0.0,0 STARLINK-5605,1 55411U 23014W   23111.26438728  .00000674  00000-0  73696-5 0  9997,2 55411  69.9987 225.9545 0003625 259.4638 100.6150 15.69931271 13631,6737.231,91.724,361.538,356.653,0.0
55411.0,STARLINK-5605,PAYLOAD,2023-04-21 17:02:58,15.69932247,0.0003392,69.9974,224.698,256.4202,103.6616,4.0369e-06,2.73e-06,0.0,0 STARLINK-5605,1 55411U 23014W   23111.71040381  .00000273  00000-0  40369-5 0  9997,2 55411  69.9974 224.6980 0003392 256.4202 103.6616 15.69932247 12768,6737.228,91.724,361.378,356.808,0.0
55411.0,STARLINK-5605,PAYLOAD,2023-04-22 00:41:44,15.69923557,0.000361,69.9975,223.805,258.6182,101.4608,1.6337e-05,1.752e-05,0.0,0 STARLINK-5605,1 55411U 23014W   23112.02899051  .00001752  00000-0  16337-4 0  9998,2 55411  69.9975 223.8050 0003610 258.6182 101.4608 15.69923557 12819,6737.253,91.724,361.55,356.686,0.0
55411.0,STARLINK-5605,PAYLOAD,2023-04-22 09:52:15,15.69921239,0.0003368,69.9991,222.7308,260.9758,99.1057,1.9629e-05,2.148e-05,0.0,0 STARLINK-5605,1 55411U 23014W   23112.41129214  .00002148  00000-0  19629-4 0  9995,2 55411  69.9991 222.7308 0003368 260.9758  99.1057 15.69921239 13813,6737.259,91.724,361.393,356.855,0.0
55411.0,STARLINK-5605,PAYLOAD,2023-04-23 07:16:47,15.6991616,0.0003449,69.9988,220.223,262.953,97.1273,7.5276e-06,6.92e-06,0.0,0 STARLINK-5605,1 55411U 23014W   23113.30333263  .00000692  00000-0  75276-5 0  9998,2 55411  69.9988 220.2230 0003449 262.9530  97.1273 15.69916160 13956,6737.274,91.725,361.463,356.815,0.0
55411.0,STARLINK-5605,PAYLOAD,2023-04-23 17:59:03,15.6992325,0.0003449,69.9985,218.9691,257.8688,102.2122,-4.6179e-06,-7.68e-06,0.0,0 STARLINK-5605,1 55411U 23014W   23113.74934880 -.00000768  00000-0 -46179-5 0  9994,2 55411  69.9985 218.9691 0003449 257.8688 102.2122 15.69923250 13088,6737.254,91.724,361.442,356.795,0.0
55411.0,STARLINK-5605,PAYLOAD,2023-04-24 06:13:03,15.69935292,0.0003048,69.9984,217.5354,253.718,106.3681,2.2109e-05,2.448e-05,0.0,0 STARLINK-5605,1 55411U 23014W   23114.25906630  .00002448  00000-0  22109-4 0  9994,2 55411  69.9984 217.5354 0003048 253.7180 106.3681 15.69935292 14103,6737.219,91.724,361.138,357.031,0.0
55411.0,STARLINK-5605,PAYLOAD,2023-04-25 09:44:39,15.69891993,0.0002892,69.9984,214.3113,259.748,100.339,-3.4825e-05,-4.392e-05,0.0,0 STARLINK-5605,1 55411U 23014W   23115.40601373 -.00004392  00000-0 -34825-4 0  9998,2 55411  69.9984 214.3113 0002892 259.7480 100.3390 15.69891993 13341,6737.343,91.726,361.156,357.26,0.0
55411.0,STARLINK-5605,PAYLOAD,2023-04-25 23:30:23,15.69926958,0.0002842,69.9998,212.7,266.5708,93.5162,3.1589e-06,1.67e-06,0.0,0 STARLINK-5605,1 55411U 23014W   23115.97943934  .00000167  00000-0  31589-5 0  9991,2 55411  69.9998 212.7000 0002842 266.5708  93.5162 15.69926958 13437,6737.243,91.724,361.023,357.193,0.0
55411.0,STARLINK-5605,PAYLOAD,2023-04-26 10:12:37,15.69945249,0.0002989,70.0001,211.4463,272.882,87.2034,6.1795e-05,7.23e-05,0.0,0 STARLINK-5605,1 55411U 23014W   23116.42543106  .00007230  00000-0  61795-4 0  9998,2 55411  70.0001 211.4463 0002989 272.8820  87.2034 15.69945249 14445,6737.191,91.723,361.069,357.042,0.0
55411.0,STARLINK-5605,PAYLOAD,2023-04-26 16:19:37,15.6994294,0.0002798,69.9989,210.7271,274.6451,85.4425,5.5839e-05,6.511e-05,0.0,0 STARLINK-5605,1 55411U 23014W   23116.68029872  .00006511  00000-0  55839-4 0  9998,2 55411  69.9989 210.7271 0002798 274.6451  85.4425 15.69942940 14487,6737.197,91.723,360.947,357.177,0.0
55411.0,STARLINK-5605,PAYLOAD,2023-04-26 23:58:25,15.69908457,0.0002953,69.9985,209.8346,277.5066,82.5795,3.6791e-05,4.21e-05,0.0,0 STARLINK-5605,1 55411U 23014W   23116.99890524  .00004210  00000-0  36791-4 0  9992,2 55411  69.9985 209.8346 0002953 277.5066  82.5795 15.69908457 13596,6737.296,91.725,361.15,357.171,0.0
55411.0,STARLINK-5605,PAYLOAD,2023-04-27 09:08:56,15.69908958,0.0002891,69.9988,208.7566,270.6691,89.4173,2.8532e-05,3.217e-05,0.0,0 STARLINK-5605,1 55411U 23014W   23117.38120950  .00003217  00000-0  28532-4 0  9995,2 55411  69.9988 208.7566 0002891 270.6691  89.4173 15.69908958 14593,6737.294,91.725,361.107,357.212,0.0
55411.0,STARLINK-5605,PAYLOAD,2023-04-28 12:40:27,15.69950503,0.000324,69.9991,205.5361,276.0291,84.0535,-1.9481e-05,-2.557e-05,0.0,0 STARLINK-5605,1 55411U 23014W   23118.52809328 -.00002557  00000-0 -19481-4 0  9996,2 55411  69.9991 205.5361 0003240 276.0291  84.0535 15.69950503 13832,6737.176,91.723,361.223,356.858,0.0
55411.0,STARLINK-5605,PAYLOAD,2023-04-28 23:22:44,15.69922045,0.000243,69.9999,204.282,301.4597,58.6361,3.4348e-06,2.01e-06,0.0,0 STARLINK-5605,1 55411U 23014W   23118.97412382  .00000201  00000-0  34348-5 0  9997,2 55411  69.9999 204.2820 0002430 301.4597  58.6361 15.69922045 13900,6737.257,91.724,360.759,357.485,0.0
55411.0,STARLINK-5605,PAYLOAD,2023-04-29 08:33:15,15.69905005,0.0003774,70.0004,203.2076,284.6956,75.3821,1.4867e-05,1.574e-05,0.0,0 STARLINK-5605,1 55411U 23014W   23119.35642764  .00001574  00000-0  14867-4 0  9996,2 55411  70.0004 203.2076 0003774 284.6956  75.3821 15.69905005 13965,6737.306,91.725,361.713,356.628,0.0
55411.0,STARLINK-5605,PAYLOAD,2023-04-30 04:26:00,15.69921176,0.0004069,69.9988,200.8779,267.0709,93.0021,1.6443e-05,1.764e-05,0.0,0 STARLINK-5605,1 55411U 23014W   23120.18473234  .00001764  00000-0  16443-4 0  9996,2 55411  69.9988 200.8779 0004069 267.0709  93.0021 15.69921176 14096,6737.26,91.724,361.866,356.383,0.0
55411.0,STARLINK-5605,PAYLOAD,2023-04-30 09:01:17,15.69908962,0.0003319,69.9989,200.3416,277.0921,82.9897,-2.2701e-05,-2.94e-05,0.0,0 STARLINK-5605,1 55411U 23014W   23120.37590237 -.00002940  00000-0 -22701-4 0  9993,2 55411  69.9989 200.3416 0003319 277.0921  82.9897 15.69908962 14124,6737.294,91.725,361.396,356.923,0.0
55411.0,STARLINK-5605,PAYLOAD,2023-04-30 13:36:32,15.69911811,0.0002259,69.999,199.8015,252.8091,107.2858,-9.4e-06,-1.341e-05,0.0,0 STARLINK-5605,1 55411U 23014W   23120.56704834 -.00001341  00000-0 -94000-5 0  9990,2 55411  69.9990 199.8015 0002259 252.8091 107.2858 15.69911811 15096,6737.286,91.725,360.673,357.629,0.0
55411.0,STARLINK-5605,PAYLOAD,2023-04-30 15:08:17,15.6991587,0.0002636,69.9986,199.6219,270.8048,89.2846,-5.0639e-06,-8.21e-06,0.0,0 STARLINK-5605,1 55411U 23014W   23120.63076236 -.00000821  00000-0 -50639-5 0  9998,2 55411  69.9986 199.6219 0002636 270.8048  89.2846 15.69915870 14168,6737.275,91.725,360.916,357.364,0.0
55411.0,STARLINK-5605,PAYLOAD,2023-05-01 12:32:48,15.69927175,0.0003276,69.9972,197.1121,268.4058,91.6762,1.9662e-06,2.4e-07,0.0,0 STARLINK-5605,1 55411U 23014W   23121.52278771  .00000024  00000-0  19662-5 0  9999,2 55411  69.9972 197.1121 0003276 268.4058  91.6762 15.69927175 14304,6737.242,91.724,361.314,356.9,0.0
55411.0,STARLINK-5605,PAYLOAD,2023-05-01 17:08:04,15.69908501,0.0003305,69.9973,196.5748,271.4684,88.6133,4.3345e-05,4.999e-05,0.0,0 STARLINK-5605,1 55411U 23014W   23121.71394224  .00004999  00000-0  43345-4 0  9991,2 55411  69.9973 196.5748 0003305 271.4684  88.6133 15.69908501 14338,6737.296,91.725,361.387,356.934,0.0
55411.0,STARLINK-5605,PAYLOAD,2023-05-02 05:22:04,15.6992446,0.0003363,69.9972,195.1416,268.8232,91.2578,1.8656e-05,2.031e-05,0.0,0 STARLINK-5605,1 55411U 23014W   23122.22366868  .00002031  00000-0  18656-4 0  9993,2 55411  69.9972 195.1416 0003363 268.8232  91.2578 15.69924460 14411,6737.25,91.724,361.381,356.849,0.0
55411.0,STARLINK-5605,PAYLOAD,2023-05-02 13:00:50,15.69923027,0.0003367,69.9971,194.2466,268.6166,91.4644,2.593e-05,2.906e-05,0.0,0 STARLINK-5605,1 55411U 23014W   23122.54225223  .00002906  00000-0  25930-4 0  9991,2 55411  69.9971 194.2466 0003367 268.6166  91.4644 15.69923027 15407,6737.254,91.724,361.388,356.851,0.0
55411.0,STARLINK-5605,PAYLOAD,2023-05-02 16:04:22,15.69909096,0.0002667,69.9971,193.8857,283.8506,76.2393,4.7232e-06,3.55e-06,0.0,0 STARLINK-5605,1 55411U 23014W   23122.66970123  .00000355  00000-0  47232-5 0  9996,2 55411  69.9971 193.8857 0002667 283.8506  76.2393 15.69909096 14484,6737.294,91.725,360.956,357.362,0.0
55411.0,STARLINK-5605,PAYLOAD,2023-05-03 07:21:52,15.69920296,0.000339,69.9972,192.0962,267.2255,92.8552,1.3426e-06,-5.1e-07,0.0,0 STARLINK-5605,1 55411U 23014W   23123.30686242 -.00000051  00000-0  13426-5 0  9996,2 55411  69.9972 192.0962 0003390 267.2255  92.8552 15.69920296 14581,6737.262,91.724,361.411,356.843,0.0
55411.0,STARLINK-5605,PAYLOAD,2023-05-03 13:28:53,15.69924879,0.000283,69.9988,191.3818,253.0738,107.0148,8.5519e-06,8.16e-06,0.0,0 STARLINK-5605,1 55411U 23014W   23123.56172533  .00000816  00000-0  85519-5 0  9997,2 55411  69.9988 191.3818 0002830 253.0738 107.0148 15.69924879 15567,6737.249,91.724,361.021,357.207,0.0
